EUTELSAT 21B            
1 38992U 12062B   25251.52345733  .00000128  00000+0  00000+0 0  9998
2 38992   0.0693 353.0679 0002704 177.4229  27.3653  1.00270967 47008
EUTELSAT 70B            
1 39020U 12069A   25251.62816758 -.00000046  00000+0  00000+0 0  9999
2 39020   0.0651 353.5219 0003874 178.1652 112.8802  1.00271647 46682
EUTELSAT 117 WEST A     
1 39122U 13012A   25251.51016808 -.00000015  00000+0  00000+0 0  9993
2 39122   0.0497 297.6309 0002922 233.4700 243.5760  1.00271726 45607
EUTELSAT 7B             
1 39163U 13022A   25251.23502318  .00000046  00000+0  00000+0 0  9997
2 39163   0.0710 336.5858 0000944  61.4554  41.1248  1.00272542 45138
EXPRESS-AT1             
1 39612U 14010A   25251.66938212  .00000076  00000+0  00000+0 0  9990
2 39612   0.0116 215.3252 0000208 280.6437 149.0003  1.00273120 41997
EUTELSAT 3B             
1 39773U 14030A   25251.37699002  .00000017  00000+0  00000+0 0  9994
2 39773   0.0648 347.4058 0004372 179.5022 319.5912  1.00271025 41241
EUTELSAT 115 WEST B     
1 40425U 15010B   25251.40664250 -.00000028  00000+0  00000+0 0  9993
2 40425   0.0388 353.3245 0000089 107.1780 278.7059  1.00273864 38563
